[{"OBJECT_NAME":"STARLINK-5860","OBJECT_ID":"2023-088E","EPOCH":"2026-03-09T12:53:25.027008","MEAN_MOTION":15.02736345,"ECCENTRICITY":0.00025465,"INCLINATION":43.0045,"RA_OF_ASC_NODE":108.5724,"ARG_OF_PERICENTER":284.5925,"MEAN_ANOMALY":75.4635,"EPHEMERIS_TYPE":0,"CLASSIFICATION_TYPE":"U","NORAD_CAT_ID":57052,"ELEMENT_SET_NO":999,"REV_AT_EPOCH":15034,"BSTAR":0.0019008825,"MEAN_MOTION_DOT":0.00025706,"MEAN_MOTION_DDOT":0},{"OBJECT_NAME":"COSMOS 2251 DEB","OBJECT_ID":"1993-036BRU","EPOCH":"2026-02-21T14:09:45.153216","MEAN_MOTION":14.99001579,"ECCENTRICITY":0.0017259,"INCLINATION":74.0061,"RA_OF_ASC_NODE":146.9269,"ARG_OF_PERICENTER":277.3195,"MEAN_ANOMALY":147.2685,"EPHEMERIS_TYPE":0,"CLASSIFICATION_TYPE":"U","NORAD_CAT_ID":38062,"ELEMENT_SET_NO":999,"REV_AT_EPOCH":64090,"BSTAR":0.0019091,"MEAN_MOTION_DOT":0.00023247,"MEAN_MOTION_DDOT":0}]
